0 COSMOS 1275 DEB
1 17627U 81053KZ  13283.13876954  .00000886  00000-0  68456-3 0  1794
2 17627 082.9313 311.3773 0050649 111.3836 310.9361 13.91160254439970
0 COSMOS 1275 DEB
1 17627U 81053KZ  13285.79779992  .00000876  00000-0  67711-3 0  1806
2 17627 082.9307 309.3499 0050547 103.9151 307.6878 13.91163967440342
0 COSMOS 1275 DEB
1 17627U 81053KZ  13287.09298845  .00000955  00000-0  73923-3 0  1815
2 17627 082.9305 308.3622 0050543 100.2816 314.1645 13.91166764440524
0 COSMOS 1275 DEB
1 17627U 81053KZ  13288.09998808  .00001191  00000-0  92456-3 0  1828
2 17627 082.9304 307.5942 0050535 097.4451 317.3727 13.91170028440661
0 COSMOS 1275 DEB
1 17627U 81053KZ  13289.48588866  .00001007  00000-0  77963-3 0  1834
2 17627 082.9305 306.5372 0050518 093.5487 058.1848 13.91173436440856
0 COSMOS 1275 DEB
1 17627U 81053KZ  13290.49300786  .00001071  00000-0  83035-3 0  1849
2 17627 082.9306 305.7692 0050504 090.7268 061.9997 13.91175299440995
0 COSMOS 1275 DEB
1 17627U 81053KZ  13291.50171896  .00001065  00000-0  82500-3 0  1850
2 17627 082.9307 304.9998 0050462 087.8571 073.8384 13.91177422441132
0 COSMOS 1275 DEB
1 17627U 81053KZ  13292.50676961  .00001146  00000-0  88898-3 0  1861
2 17627 082.9308 304.2333 0050521 085.1633 067.1902 13.91179815441270
0 COSMOS 1275 DEB
1 17627U 81053KZ  13293.51390803  .00001229  00000-0  95430-3 0  1874
2 17627 082.9308 303.4650 0050511 082.3565 071.1113 13.91182167441414
0 COSMOS 1275 DEB
1 17627U 81053KZ  13294.51535162  .00001248  00000-0  96907-3 0  1886
2 17627 082.9309 302.7014 0050493 079.5312 046.5550 13.91184807441557
0 COSMOS 1275 DEB
1 17627U 81053KZ  13296.16800944  .00001322  00000-0  10276-2 0  1890
2 17627 082.9308 301.4412 0050450 074.9028 043.4011 13.91188435441784
